{"type":"FeatureCollection","bbox":[-135.313,-33.991,129.956,72.907],"features":[{"type":"Feature","properties":{"scalerank":2,"featurecla":"River","name":"Brahmaputra","name_alt":null,"min_zoom":2.1,"name_en":"Brahmaputra","min_label":3.1,"wikidataid":"Q45403","label":"Brahmaputra","name_ar":"Ù†Ù‡Ø± Ø¨Ø±Ø§Ù‡Ù…Ø§Ø¨ÙˆØªØ±Ø§","name_bn":"à¦¬à§à¦°à¦¹à§à¦®à¦ªà§à¦¤à§à¦° à¦¨à¦¦","name_de":"Brahmaputra","name_es":"Brahmaputra","name_fr":"Brahmapoutre","name_el":"Î’ÏÎ±Ï‡Î¼Î±Ï€Î¿ÏÏ„ÏÎ±Ï‚","name_hi":"à¤¬à¥à¤°à¤¹à¥à¤®à¤ªà¥à¤¤à¥à¤° à¤¨à¤¦à¥€","name_hu":"Brahmaputra","name_id":"Sungai Brahmaputra","name_it":"Brahmaputra","name_ja":"ãƒ–ãƒ©ãƒžãƒ—ãƒˆãƒ©å·","name_ko":"ë¸Œë¼ë§ˆí‘¸íŠ¸ë¼ ê°•","name_nl":"Brahmaputra","name_pl":"Brahmaputra","name_pt":"Rio Bramaputra","name_ru":"Ð‘Ñ€Ð°Ñ…Ð¼Ð°Ð¿ÑƒÑ‚Ñ€Ð°","name_sv":"Brahmaputra","name_tr":"Brahmaputra Nehri","name_vi":"Brahmaputra","name_zh":"å¸ƒæ‹‰é©¬æ™®ç‰¹æ‹‰æ²³","wdid_score":4,"ne_id":1159120261},"geometry":{"type":"LineString","coordinates":[[82.4,30.411],[84.707,29.296],[87.66,29.152],[87.984,29.342],[88.631,29.351],[92.095,29.253],[93.25,29.07],[94.356,29.31],[95.265,29.829],[95.317,29.418],[94.871,28.832],[95.383,27.904],[94.395,27.042],[93.752,26.732],[91.683,26.215],[90.334,26.135],[89.925,25.874],[89.613,24.948],[89.744,23.859],[90.226,23.418],[90.508,22.78]]}},{"type":"Feature","properties":{"scalerank":2,"featurecla":"River","name":"Mekong","name_alt":null,"min_zoom":2.1,"name_en":"Mekong","min_label":3.1,"wikidataid":"Q41179","label":"Mekong","name_ar":"Ù†Ù‡Ø± Ù…ÙŠÙƒÙˆÙ†Øº","name_bn":null,"name_de":"Mekong","name_es":"Mekong","name_fr":"MÃ©kong","name_el":"ÎœÎµÎºÏŒÎ½Î³Îº","name_hi":"à¤®à¥€à¤•à¤¾à¤‚à¤— à¤¨à¤¦à¥€","name_hu":"Mekong","name_id":"Mekong","name_it":"Mekong","name_ja":"ãƒ¡ã‚³ãƒ³å·","name_ko":"ë©”ì½© ê°•","name_nl":"Mekong","name_pl":"Mekong","name_pt":"Rio Mekong","name_ru":"ÐœÐµÐºÐ¾Ð½Ð³","name_sv":"Mekong","name_tr":"Mekong","name_vi":"MÃª KÃ´ng","name_zh":"æ¹„å…¬æ²³","wdid_score":4,"ne_id":1159121023},"geometry":{"type":"LineString","coordinates":[[94.084,33.156],[94.941,33.089],[96.239,32.526],[96.941,31.966],[97.257,31.096],[98.624,28.963],[99.15,27.028],[99.24,25.668],[99.667,25.014],[100.487,24.526],[100.139,23.473],[100.171,23.107],[101.018,21.798],[101.15,21.85],[101.18,21.437],[100.329,20.786],[100.116,20.418],[100.549,20.109],[100.569,19.896],[101.472,19.87],[102.185,20.049],[101.884,19.555],[101.765,18.722],[101.492,18.16],[101.564,17.821],[102.114,18.109],[102.413,17.933],[102.999,17.962],[103.2,18.31],[103.956,18.241],[104.717,17.429],[104.779,16.442],[105.589,15.57],[105.891,14.771],[105.965,13.857],[105.93,12.397],[105.05,11.805],[104.951,11.591],[105.208,10.707],[106.361,9.434]]}},{"type":"Feature","properties":{"scalerank":2,"featurecla":"River","name":"Ob","name_alt":null,"min_zoom":2.1,"name_en":"Ob","min_label":3.1,"wikidataid":"Q973","label":"Ob","name_ar":"Ø£ÙˆØ¨ÙŠ","name_bn":"à¦“à¦¬ à¦¨à¦¦à§€","name_de":"Ob","name_es":"Obi","name_fr":"Ob","name_el":"ÎŸÎ¼Ï€","name_hi":"à¤“à¤¬ à¤¨à¤¦à¥€","name_hu":"Ob","name_id":"Sungai Ob","name_it":"Ob'","name_ja":"ã‚ªãƒ“å·","name_ko":"ì˜¤ë¹„ ê°•","name_nl":"Ob","name_pl":"Ob","name_pt":"Rio Ob","name_ru":"ÐžÐ±ÑŒ","name_sv":"Ob","name_tr":"Obi Nehri","name_vi":"SÃ´ng Obi","name_zh":"é„‚ç•¢æ²³","wdid_score":4,"ne_id":1159114911},"geometry":{"type":"LineString","coordinates":[[90.325,47.65],[90.201,47.408],[89.397,47.069],[85.267,47.994],[84.357,47.732],[83.551,48.313],[83.492,48.779],[84.012,49.176],[83.364,49.644],[82.14,50.182],[78.545,50.767],[77.243,51.869],[76.606,52.693],[75.309,53.496],[74.52,54.375],[73.376,54.877],[73.082,55.23],[74.625,56.027],[74.63,56.644],[74.28,57.028],[70.289,57.946],[68.224,58.167],[68.968,59.405],[69.783,59.873],[69.804,60.515],[65.41,62.847],[65.926,64.224],[65.368,65.167],[65.839,66.157],[66.677,66.567],[68.193,66.576],[69.013,66.788],[71.47,66.663]]}},{"type":"Feature","properties":{"scalerank":2,"featurecla":"River","name":"Peace","name_alt":null,"min_zoom":2.1,"name_en":"Peace","min_label":3.1,"wikidataid":"Q2220","label":"Peace","name_ar":null,"name_bn":null,"name_de":"Peace","name_es":"RÃ­o de la Paz","name_fr":"riviÃ¨re de la Paix","name_el":null,"name_hi":null,"name_hu":"Peace-folyÃ³","name_id":null,"name_it":"Peace","name_ja":"ãƒ”ãƒ¼ã‚¹å·","name_ko":"í”¼ìŠ¤ ê°•","name_nl":"Peace","name_pl":"Peace","name_pt":"Rio Peace","name_ru":"ÐŸÐ¸Ñ","name_sv":"Peace","name_tr":null,"name_vi":null,"name_zh":"çš®æ–¯æ²³","wdid_score":4,"ne_id":1159117465},"geometry":{"type":"LineString","coordinates":[[-124.836,56.757],[-124.2,56.243],[-123.544,56.045],[-121.974,56.02],[-121.357,56.19],[-119.509,56.251],[-118.67,56.016],[-117.779,56.054],[-117.2,56.412],[-117.037,57.929],[-116.542,58.289],[-114.613,58.476],[-112.648,59.098],[-111.411,59.005],[-111.444,59.537],[-113.46,61.243],[-114.568,61.31],[-116.334,61.089],[-118.155,61.421],[-119.768,61.334],[-120.813,61.781],[-123.024,62.242],[-123.321,63.057],[-125.025,64.692],[-128.671,65.723],[-128.842,66.323],[-130.533,67.306],[-131.209,67.455],[-133.016,67.293],[-133.83,67.521],[-134.4,68.053],[-134.244,68.706],[-135.313,69.375]]}},{"type":"Feature","properties":{"scalerank":2,"featurecla":"River","name":"Donau","name_alt":"Danube","min_zoom":2.1,"name_en":"Danube","min_label":3.1,"wikidataid":"Q1653","label":"Donau","name_ar":"Ø¯Ø§Ù†ÙˆØ¨","name_bn":"à¦¦à¦¾à¦¨à¦¿à¦‰à¦¬ à¦¨à¦¦à§€","name_de":"Donau","name_es":"Danubio","name_fr":"Danube","name_el":"Î”Î¿ÏÎ½Î±Î²Î·Ï‚","name_hi":"à¤¡à¥ˆà¤¨à¥à¤¯à¥‚à¤¬ à¤¨à¤¦à¥€","name_hu":"Duna","name_id":"Sungai Donau","name_it":"Danubio","name_ja":"ãƒ‰ãƒŠã‚¦å·","name_ko":"ë„ë‚˜ìš° ê°•","name_nl":"Donau","name_pl":"Dunaj","name_pt":"Rio DanÃºbio","name_ru":"Ð”ÑƒÐ½Ð°Ð¹","name_sv":"Donau","name_tr":"Tuna","name_vi":"SÃ´ng Donau","name_zh":"å¤šç‘™æ²³","wdid_score":4,"ne_id":1159118769},"geometry":{"type":"LineString","coordinates":[[8.22,48.047],[9.414,48.138],[10.72,48.649],[11.684,48.794],[12.033,49.027],[14.702,48.234],[15.937,48.353],[17.857,47.758],[18.697,47.881],[19.026,47.668],[18.764,46.034],[19.073,45.522],[19.392,45.247],[20.16,45.128],[20.768,44.744],[21.36,44.827],[22.145,44.478],[22.459,44.703],[22.706,44.578],[22.474,44.409],[22.945,43.824],[25.569,43.688],[28.053,44.409],[27.877,44.744],[28.223,45.469],[28.68,45.304],[29.15,45.465],[29.603,45.293]]}},{"type":"Feature","properties":{"scalerank":2,"featurecla":"River","name":"ParanÃ¡","name_alt":null,"min_zoom":2.1,"name_en":"ParanÃ¡","min_label":3.1,"wikidataid":"Q127892","label":"ParanÃ¡","name_ar":"Ù†Ù‡Ø± Ø¨Ø§Ø±Ø§Ù†Ø§","name_bn":null,"name_de":"RÃ­o ParanÃ¡","name_es":"ParanÃ¡","name_fr":"ParanÃ¡","name_el":"Î Î±ÏÎ±Î½Î¬","name_hi":"à¤ªà¤°à¤¾à¤¨à¤¾ à¤¨à¤¦à¥€","name_hu":"ParanÃ¡","name_id":"Sungai ParanÃ¡","name_it":"ParanÃ¡","name_ja":"ãƒ‘ãƒ©ãƒŠå·","name_ko":"íŒŒë¼ë‚˜ ê°•","name_nl":"ParanÃ¡","name_pl":"Parana","name_pt":"Rio ParanÃ¡","name_ru":"ÐŸÐ°Ñ€Ð°Ð½Ð°","name_sv":"ParanÃ¡floden","name_tr":"ParanÃ¡ Nehri","name_vi":"SÃ´ng ParanÃ¡","name_zh":"å·´æ‹‰é‚£æ²³","wdid_score":5,"ne_id":1159118169},"geometry":{"type":"LineString","coordinates":[[-55.075,-14.319],[-55.432,-14.357],[-56.335,-14.859],[-56.394,-15.068],[-55.927,-16.215],[-56.429,-16.652],[-56.59,-17.067],[-57.318,-17.925],[-57.6,-18.879],[-57.337,-19.211],[-57.387,-19.393],[-58.166,-20.177],[-57.871,-20.733],[-57.975,-22.162],[-57.829,-22.82],[-57.201,-24.043],[-57.13,-24.64],[-58.85,-27.611],[-59.227,-29.058],[-59.523,-29.403],[-59.654,-30.717],[-60.696,-32.051],[-60.642,-32.785],[-60.249,-33.243],[-59.2,-33.812],[-58.429,-33.991]]}},{"type":"Feature","properties":{"scalerank":2,"featurecla":"River","name":"Congo","name_alt":null,"min_zoom":2.1,"name_en":"Congo","min_label":3.1,"wikidataid":"Q3503","label":"Congo","name_ar":"Ù†Ù‡Ø± Ø§Ù„ÙƒÙˆÙ†ØºÙˆ","name_bn":"à¦•à¦™à§à¦—à§‹ à¦¨à¦¦à§€","name_de":"Kongo","name_es":"rÃ­o Congo","name_fr":"Congo","name_el":"ÎšÎ¿Î½Î³ÎºÏŒ","name_hi":"à¤•à¤¾à¤‚à¤—à¥‹ à¤¨à¤¦à¥€","name_hu":"KongÃ³","name_id":"Sungai Kongo","name_it":"Congo","name_ja":"ã‚³ãƒ³ã‚´å·","name_ko":"ì½©ê³  ê°•","name_nl":"Kongo","name_pl":"Kongo","name_pt":"Rio Congo","name_ru":"ÐšÐ¾Ð½Ð³Ð¾","name_sv":"Kongofloden","name_tr":"Kongo Nehri","name_vi":"SÃ´ng Congo","name_zh":"åˆšæžœæ²³","wdid_score":4,"ne_id":1159120849},"geometry":{"type":"LineString","coordinates":[[26.249,-11.743],[25.938,-11.654],[25.64,-11.186],[25.711,-10.743],[25.467,-10.375],[25.502,-9.455],[25.923,-9.1],[26.441,-8.272],[26.919,-7.917],[26.946,-5.009],[26.014,-3.743],[25.802,-1.355],[25.48,-0.539],[25.409,0.346],[24.292,0.782],[22.347,2.129],[20.268,1.923],[19.143,1.574],[18.488,0.911],[18.199,0.1],[17.524,-0.744],[16.407,-1.741],[15.973,-2.712],[16.006,-3.535],[15.754,-3.855],[14.583,-4.97],[14.075,-5.02],[13.61,-5.363],[13.376,-5.864],[12.322,-6.1]]}},{"type":"Feature","properties":{"scalerank":1,"featurecla":"River","name":"Lena","name_alt":null,"min_zoom":2,"name_en":"Lena","min_label":3,"wikidataid":"Q46841","label":"Lena","name_ar":"Ù†Ù‡Ø± Ù„ÙŠÙ†Ø§","name_bn":"à¦²à§‡à¦¨à¦¾ à¦¨à¦¦à§€","name_de":"Lena","name_es":"Lena","name_fr":"LÃ©na","name_el":"Î›Î­Î½Î±Ï‚ Ï€Î¿Ï„Î±Î¼ÏŒÏ‚","name_hi":"à¤²à¥‡à¤¨à¤¾ à¤¨à¤¦à¥€","name_hu":"LÃ©na","name_id":"Sungai Lena","name_it":"Lena","name_ja":"ãƒ¬ãƒŠå·","name_ko":"ë ˆë‚˜ ê°•","name_nl":"Lena","name_pl":"Lena","name_pt":"Rio Lena","name_ru":"Ð›ÐµÐ½Ð°","name_sv":"Lena","name_tr":"Lena Nehri","name_vi":"SÃ´ng Lena","name_zh":"å‹’æ‹¿æ²³","wdid_score":4,"ne_id":1159112191},"geometry":{"type":"LineString","coordinates":[[107.98,54.004],[108.041,54.185],[107.783,54.294],[107.023,53.871],[106.107,53.885],[105.288,54.385],[105.17,55.054],[105.786,56.229],[106.246,56.485],[105.862,56.761],[106.011,56.897],[107.393,57.301],[108.609,58.045],[110.009,58.563],[111.101,58.783],[112.35,59.301],[114.944,60.732],[116.152,60.607],[118.317,59.801],[121.196,60.589],[123.551,60.592],[124.995,60.758],[129.216,61.499],[129.956,62.415],[129.38,63.49],[127.955,63.716],[124.797,65.018],[123.697,66.503],[123.183,67.889],[125.941,70.428],[127.46,70.87],[126.69,72.294],[122.752,72.907]]}},{"type":"Feature","properties":{"scalerank":1,"featurecla":"River","name":"Chang","name_alt":null,"min_zoom":2,"name_en":"Yangtze","min_label":3,"wikidataid":"Q5413","label":"Yangtze","name_ar":"ÙŠØ§Ù†ØºØªØ³ÙŠ","name_bn":"à¦‡à¦¯à¦¼à¦¾à¦‚ à¦šà¦¿ à¦•à¦¿à¦¯à¦¼à¦¾à¦‚","name_de":"Jangtsekiang","name_es":"YangtsÃ©","name_fr":"Yangzi Jiang","name_el":"Î“Î¹Î±Î½Î³ÎºÏ„ÏƒÎ­","name_hi":"à¤¯à¤¾à¤‚à¤—à¥à¤¤à¥à¤¸à¥€à¤•à¥à¤¯à¤¾à¤‚à¤—","name_hu":"Jangce","name_id":"Sungai Panjang","name_it":"Fiume Azzurro","name_ja":"é•·æ±Ÿ","name_ko":"ì°½ ê°•","name_nl":"Jangtsekiang","name_pl":"Jangcy","name_pt":"Rio YangtzÃ©","name_ru":"Ð¯Ð½Ñ†Ð·Ñ‹","name_sv":"Yangtze","name_tr":"Yangtze","name_vi":"TrÆ°á»ng Giang","name_zh":"é•¿æ±Ÿ","wdid_score":4,"ne_id":1159113707},"geometry":{"type":"LineString","coordinates":[[90.795,34.3],[92.993,34.1],[94.682,34.675],[95.375,34.407],[97.033,33.237],[98.162,32.287],[98.774,31.36],[99.232,28.433],[99.798,27.165],[99.98,27.081],[100.371,27.659],[100.505,26.241],[101.823,26.53],[101.997,26.104],[102.897,26.393],[102.958,27.224],[103.79,28.332],[103.851,28.668],[105.82,28.877],[106.614,29.549],[107.604,29.924],[108.576,30.86],[109.46,31.01],[110.828,30.922],[111.534,30.38],[112.033,30.352],[112.44,29.818],[112.916,29.71],[113.128,29.463],[113.935,30.064],[114.303,30.593],[114.788,30.518],[115.679,29.856],[116.263,29.839],[117.599,30.815],[119.004,32.151],[119.746,32.137],[120.577,31.614],[121.858,31.415]]}},{"type":"Feature","properties":{"scalerank":1,"featurecla":"River","name":"Nile","name_alt":null,"min_zoom":2,"name_en":"Nile","min_label":3,"wikidataid":"Q3392","label":"Nile","name_ar":"Ù†Ù‡Ø± Ø§Ù„Ù†ÙŠÙ„","name_bn":"à¦¨à§€à¦²à¦¨à¦¦","name_de":"Nil","name_es":"Nilo","name_fr":"Nil","name_el":"ÎÎµÎ¯Î»Î¿Ï‚","name_hi":"à¤¨à¥€à¤² à¤¨à¤¦à¥€","name_hu":"NÃ­lus","name_id":"Sungai Nil","name_it":"Nilo","name_ja":"ãƒŠã‚¤ãƒ«å·","name_ko":"ë‚˜ì¼ ê°•","name_nl":"Nijl","name_pl":"Nil","name_pt":"Rio Nilo","name_ru":"ÐÐ¸Ð»","name_sv":"Nilen","name_tr":"Nil","name_vi":"SÃ´ng Nin","name_zh":"å°¼ç½—æ²³","wdid_score":4,"ne_id":1159121589},"geometry":{"type":"LineString","coordinates":[[33.207,0.262],[32.893,1.311],[32.173,1.682],[32.295,1.931],[32.188,2.208],[31.366,2.193],[31.564,3.225],[32.016,3.614],[31.605,4.343],[31.673,5.93],[30.592,7.544],[30.264,8.909],[30.519,9.399],[31.539,9.46],[32.239,10.22],[32.199,10.57],[32.585,11.13],[32.749,11.995],[32.748,12.996],[32.254,14.463],[32.49,15.635],[32.703,16.219],[33.772,17.168],[33.913,17.914],[33.38,19.423],[32.645,19.248],[31.31,18.039],[30.822,18.206],[30.495,19.024],[30.348,19.822],[30.585,20.195],[30.345,20.651],[31.772,22.445],[32.589,22.861],[32.897,23.66],[32.841,24.886],[32.523,25.612],[32.749,26.004],[32.122,26.139],[31.086,27.299],[30.853,27.769],[30.799,28.456],[31.227,29.652],[31.034,31.532]]}},{"type":"Feature","properties":{"scalerank":1,"featurecla":"River","name":"Amazonas","name_alt":"Amazon","min_zoom":2,"name_en":"Amazon","min_label":3,"wikidataid":"Q3783","label":"Amazonas","name_ar":"Ù†Ù‡Ø± Ø§Ù„Ø£Ù…Ø§Ø²ÙˆÙ†","name_bn":"à¦†à¦®à¦¾à¦œà¦¨ à¦¨à¦¦à§€","name_de":"Amazonas","name_es":"Amazonas","name_fr":"Amazone","name_el":"Î‘Î¼Î±Î¶ÏŒÎ½Î¹Î¿Ï‚","name_hi":"à¤…à¤®à¥‡à¤œà¤¼à¤¨ à¤¨à¤¦à¥€","name_hu":"Amazonas","name_id":"Sungai Amazon","name_it":"Rio delle Amazzoni","name_ja":"ã‚¢ãƒžã‚¾ãƒ³å·","name_ko":"ì•„ë§ˆì¡´ ê°•","name_nl":"Amazone","name_pl":"Amazonka","name_pt":"Amazonas","name_ru":"ÐÐ¼Ð°Ð·Ð¾Ð½ÐºÐ°","name_sv":"Amazonfloden","name_tr":"Amazon Nehri","name_vi":"SÃ´ng Amazon","name_zh":"äºšé©¬é€Šæ²³","wdid_score":5,"ne_id":1159116655},"geometry":{"type":"LineString","coordinates":[[-71.669,-15.336],[-71.501,-14.792],[-71.659,-14.078],[-72.137,-13.739],[-73.221,-13.422],[-73.859,-12.496],[-74.145,-11.278],[-73.803,-11.189],[-73.736,-11.03],[-74.051,-10.182],[-74.007,-9.86],[-74.476,-9.029],[-74.337,-8.512],[-74.908,-7.836],[-75.216,-7.178],[-75.103,-6.238],[-74.306,-5.64],[-73.035,-3.555],[-71.866,-3.436],[-71.266,-3.86],[-70.365,-3.911],[-69.869,-4.32],[-69.503,-4.139],[-69.263,-3.622],[-68.953,-3.443],[-68.069,-3.297],[-67.379,-2.707],[-65.998,-2.497],[-65.439,-2.685],[-64.011,-3.744],[-63.177,-4.035],[-62.411,-3.789],[-61.811,-3.855],[-59.83,-3.142],[-58.689,-3.342],[-58.316,-3.212],[-57.476,-2.496],[-56.702,-2.479],[-55.515,-1.949],[-54.806,-2.176],[-54.525,-2.44],[-51.788,-1.085],[-50.555,0.056]]}},{"type":"Feature","properties":{"scalerank":1,"featurecla":"River","name":"Mississippi","name_alt":null,"min_zoom":2,"name_en":"Mississippi","min_label":3,"wikidataid":"Q1497","label":"Mississippi","name_ar":"Ù†Ù‡Ø± Ù…Ø³ÙŠØ³ÙŠØ¨ÙŠ","name_bn":"à¦®à¦¿à¦¸à¦¿à¦¸à¦¿à¦ªà¦¿ à¦¨à¦¦à§€","name_de":"Mississippi","name_es":"RÃ­o Misisipi","name_fr":"Mississippi","name_el":"Î Î¿Ï„Î±Î¼ÏŒÏ‚ ÎœÎ¹ÏƒÏƒÎ¹ÏƒÏƒÎ¹Ï€Ï€Î®Ï‚","name_hi":"à¤®à¤¿à¤¸à¤¿à¤¸à¤¿à¤ªà¥à¤ªà¥€ à¤¨à¤¦à¥€","name_hu":"Mississippi","name_id":"Sungai Mississippi","name_it":"Mississippi","name_ja":"ãƒŸã‚·ã‚·ãƒƒãƒ”å·","name_ko":"ë¯¸ì‹œì‹œí”¼ ê°•","name_nl":"Mississippi","name_pl":"Missisipi","name_pt":"Rio Mississippi","name_ru":"ÐœÐ¸ÑÑÐ¸ÑÐ¸Ð¿Ð¸","name_sv":"Mississippifloden","name_tr":"Mississippi Nehri","name_vi":"SÃ´ng Mississippi","name_zh":"å¯†è¥¿è¥¿æ¯”æ²³","wdid_score":4,"ne_id":1159119147},"geometry":{"type":"LineString","coordinates":[[-110.744,44.727],[-110.929,44.679],[-111.636,45.078],[-111.453,46.223],[-111.922,46.941],[-111.644,47.292],[-110.512,47.914],[-107.859,47.545],[-106.884,47.751],[-106.406,48.021],[-103.24,48.092],[-101.4,47.506],[-100.606,46.496],[-100.355,45.35],[-100.557,44.534],[-99.365,43.991],[-99.377,43.595],[-98.612,43.004],[-97.968,42.795],[-97.287,42.846],[-96.455,42.489],[-95.776,40.501],[-95.323,40.001],[-94.955,39.87],[-95.067,39.54],[-94.868,39.235],[-94.605,39.14],[-93.182,39.318],[-92.047,38.614],[-90.145,38.794],[-90.37,38.263],[-89.554,37.719],[-89.388,37.081],[-89.103,36.952],[-89.115,36.695],[-89.498,36.506],[-89.674,35.94],[-90.147,35.405],[-90.135,35.114],[-91.201,33.706],[-91.176,32.809],[-90.943,32.307],[-91.625,31.297],[-91.529,30.808],[-90.991,30.134],[-90.046,29.896],[-89.404,29.157]]}},{"type":"Feature","properties":{"scalerank":1,"featurecla":"River","name":"Yangtze","name_alt":null,"min_zoom":2,"name_en":"Yangtze","min_label":3,"wikidataid":"Q5413","label":"Yangtze","name_ar":"ÙŠØ§Ù†ØºØªØ³ÙŠ","name_bn":"à¦‡à¦¯à¦¼à¦¾à¦‚ à¦šà¦¿ à¦•à¦¿à¦¯à¦¼à¦¾à¦‚","name_de":"Jangtsekiang","name_es":"YangtsÃ©","name_fr":"Yangzi Jiang","name_el":"Î“Î¹Î±Î½Î³ÎºÏ„ÏƒÎ­","name_hi":"à¤¯à¤¾à¤‚à¤—à¥à¤¤à¥à¤¸à¥€à¤•à¥à¤¯à¤¾à¤‚à¤—","name_hu":"Jangce","name_id":"Sungai Panjang","name_it":"Fiume Azzurro","name_ja":"é•·æ±Ÿ","name_ko":"ì°½ ê°•","name_nl":"Jangtsekiang","name_pl":"Jangcy","name_pt":"Rio YangtzÃ©","name_ru":"Ð¯Ð½Ñ†Ð·Ñ‹","name_sv":"Yangtze","name_tr":"Yangtze","name_vi":"TrÆ°á»ng Giang","name_zh":"é•¿æ±Ÿ","wdid_score":4,"ne_id":1159113707},"geometry":{"type":"LineString","coordinates":[[116.198,29.751],[116.212,29.785]]}}]}
