{"type":"FeatureCollection","bbox":[-124.954,-16.536,109.93,66.969],"features":[{"type":"Feature","properties":{"scalerank":0,"featurecla":"Lake","name":"Lake Baikal","name_alt":null,"admin":null,"min_zoom":1,"min_label":3,"name_abb":"L. Baikal","label":"Lake Baikal","wikidataid":"Q5513","name_ar":"Ø¨Ø­ÙŠØ±Ø© Ø¨Ø§ÙŠÙƒØ§Ù„","name_bn":"à¦¬à§ˆà¦•à¦¾à¦² à¦¹à§à¦°à¦¦","name_de":"Baikalsee","name_en":"Lake Baikal","name_es":"Baikal","name_fr":"lac BaÃ¯kal","name_el":"Î’Î±ÏŠÎºÎ¬Î»Î·","name_hi":"à¤¬à¤¯à¤•à¤¾à¤² à¤à¥€à¤²","name_hu":"BajkÃ¡l-tÃ³","name_id":"Danau Baikal","name_it":"lago Bajkal","name_ja":"ãƒã‚¤ã‚«ãƒ«æ¹–","name_ko":"ë°”ì´ì¹¼ í˜¸","name_nl":"Baikalmeer","name_pl":"BajkaÅ‚","name_pt":"Lago Baikal","name_ru":"Ð‘Ð°Ð¹ÐºÐ°Ð»","name_sv":"BajkalsjÃ¶n","name_tr":"Baykal GÃ¶lÃ¼","name_vi":"Há»“ Baikal","name_zh":"è´åŠ å°”æ¹–","wdid_score":4,"ne_id":1159113127},"geometry":{"type":"Polygon","coordinates":[[[106.58,52.8],[108.04,53.86],[109.193,55.536],[109.93,55.713],[109.22,53.62],[109,53.78],[108.18,52.8],[105.24,51.52],[103.76,51.6],[103.86,51.86],[105.06,52],[106.58,52.8]]]}},{"type":"Feature","properties":{"scalerank":0,"featurecla":"Lake","name":"Lake Winnipeg","name_alt":null,"admin":null,"min_zoom":1,"min_label":3,"name_abb":"L. Winnipeg","label":"Lake Winnipeg","wikidataid":"Q3272","name_ar":"Ø¨Ø­ÙŠØ±Ø© ÙˆÙŠÙ†ÙŠØ¨ÙŠØº","name_bn":null,"name_de":"Winnipegsee","name_en":"Lake Winnipeg","name_es":"Lago Winnipeg","name_fr":"lac Winnipeg","name_el":"Î›Î¯Î¼Î½Î· Î“Î¿Ï…Î¯Î½Î¹Ï€ÎµÎ³Îº","name_hi":null,"name_hu":"Winnipeg-tÃ³","name_id":"Danau Winnipeg","name_it":"Winnipeg","name_ja":"ã‚¦ã‚£ãƒ‹ãƒšã‚°æ¹–","name_ko":"ìœ„ë‹ˆíŽ™ í˜¸","name_nl":"Winnipegmeer","name_pl":"Winnipeg","name_pt":"Lago Winnipeg","name_ru":"Ð’Ð¸Ð½Ð½Ð¸Ð¿ÐµÐ³","name_sv":"WinnipegsjÃ¶n","name_tr":"Winnipeg GÃ¶lÃ¼","name_vi":"Há»“ Winnipeg","name_zh":"æº«å°¼ä¼¯æ¹–","wdid_score":4,"ne_id":1159106747},"geometry":{"type":"Polygon","coordinates":[[[-98.955,53.93],[-97.958,54.337],[-96.393,51.397],[-96.238,50.691],[-96.726,50.449],[-97.236,51.498],[-99.237,53.216],[-98.955,53.93]]]}},{"type":"Feature","properties":{"scalerank":0,"featurecla":"Lake","name":"Great Slave Lake","name_alt":null,"admin":null,"min_zoom":1,"min_label":3,"name_abb":"Great Slave L.","label":"Great Slave Lake","wikidataid":"Q5539","name_ar":"Ø¨Ø­ÙŠØ±Ø© Ø¬Ø±ÙŠØª Ø³Ù„ÙŠÙ","name_bn":null,"name_de":"GroÃŸer Sklavensee","name_en":"Great Slave Lake","name_es":"Gran Lago del Esclavo","name_fr":"Grand lac des Esclaves","name_el":"ÎœÎµÎ³Î¬Î»Î· Î›Î¯Î¼Î½Î· Ï„Ï‰Î½ Î£ÎºÎ»Î¬Î²Ï‰Î½","name_hi":null,"name_hu":"Nagy-Rabszolga-tÃ³","name_id":null,"name_it":"Grande Lago degli Schiavi","name_ja":"ã‚°ãƒ¬ãƒ¼ãƒˆã‚¹ãƒ¬ãƒ¼ãƒ–æ¹–","name_ko":"ê·¸ë ˆì´íŠ¸ìŠ¬ë ˆì´ë¸Œ í˜¸","name_nl":"Great Slave Lake","name_pl":"Wielkie Jezioro Niewolnicze","name_pt":"Grande Lago do Escravo","name_ru":"Ð‘Ð¾Ð»ÑŒÑˆÐ¾Ðµ ÐÐµÐ²Ð¾Ð»ÑŒÐ½Ð¸Ñ‡ÑŒÐµ Ð¾Ð·ÐµÑ€Ð¾","name_sv":"Stora SlavsjÃ¶n","name_tr":"BÃ¼yÃ¼k Esir GÃ¶lÃ¼","name_vi":"Há»“ Slave Lá»›n","name_zh":"å¤§å¥´æ¹–","wdid_score":4,"ne_id":1159106729},"geometry":{"type":"Polygon","coordinates":[[[-115,61.972],[-116.059,62.779],[-113.353,62.044],[-110.2,63.08],[-109.09,62.814],[-111.276,62.349],[-113.64,61.08],[-116.44,60.86],[-118.347,61.361],[-118.18,61.556],[-116.803,61.326],[-115,61.972]]]}},{"type":"Feature","properties":{"scalerank":0,"featurecla":"Lake","name":"Lake Ontario","name_alt":"Great Lakes","admin":"admin-0","min_zoom":1,"min_label":3,"name_abb":"L. Ontario","label":"Lake Ontario","wikidataid":"Q1062","name_ar":"Ø¨Ø­ÙŠØ±Ø© Ø£ÙˆÙ†ØªØ§Ø±ÙŠÙˆ","name_bn":null,"name_de":"Ontariosee","name_en":"Lake Ontario","name_es":"Ontario","name_fr":"lac Ontario","name_el":"Î›Î¯Î¼Î½Î· ÎŸÎ½Ï„Î¬ÏÎ¹Î¿","name_hi":"à¤“à¤£à¥à¤Ÿà¤¾à¤°à¤¿à¤¯à¥‹ à¤à¥€à¤²","name_hu":"Ontario-tÃ³","name_id":"Danau Ontario","name_it":"lago Ontario","name_ja":"ã‚ªãƒ³ã‚¿ãƒªã‚ªæ¹–","name_ko":"ì˜¨íƒ€ë¦¬ì˜¤ í˜¸","name_nl":"Ontariomeer","name_pl":"Ontario","name_pt":"Lago OntÃ¡rio","name_ru":"ÐžÐ½Ñ‚Ð°Ñ€Ð¸Ð¾","name_sv":"OntariosjÃ¶n","name_tr":"Ontario GÃ¶lÃ¼","name_vi":"Há»“ Ontario","name_zh":"å®‰å¤§ç•¥æ¹–","wdid_score":4,"ne_id":1159106765},"geometry":{"type":"Polygon","coordinates":[[[-79.056,43.254],[-79.76,43.297],[-79.461,43.639],[-78.451,43.903],[-77.605,44.039],[-77.161,43.85],[-76.566,44.208],[-76.239,43.979],[-76.18,43.59],[-76.93,43.26],[-79.056,43.254]]]}},{"type":"Feature","properties":{"scalerank":0,"featurecla":"Lake","name":"Lake Erie","name_alt":"Great Lakes","admin":"admin-0","min_zoom":1,"min_label":3,"name_abb":"L. Erie","label":"Lake Erie","wikidataid":"Q5492","name_ar":"Ø¨Ø­ÙŠØ±Ø© Ø¥Ø±ÙŠ","name_bn":null,"name_de":"Eriesee","name_en":"Lake Erie","name_es":"Erie","name_fr":"lac Ã‰riÃ©","name_el":"Î›Î¯Î¼Î½Î· Î‰ÏÎ¹","name_hi":"à¤ˆà¤°à¥€ à¤à¥€à¤²","name_hu":"Erie-tÃ³","name_id":"Danau Erie","name_it":"lago Erie","name_ja":"ã‚¨ãƒªãƒ¼æ¹–","name_ko":"ì´ë¦¬ í˜¸","name_nl":"Eriemeer","name_pl":"Erie","name_pt":"Lago Erie","name_ru":"Ð­Ñ€Ð¸","name_sv":"EriesjÃ¶n","name_tr":"Erie GÃ¶lÃ¼","name_vi":"Há»“ Erie","name_zh":"ä¼Šåˆ©æ¹–","wdid_score":4,"ne_id":1159106757},"geometry":{"type":"Polygon","coordinates":[[[-83.12,42.08],[-82.571,42.017],[-81.392,42.615],[-80.545,42.56],[-78.92,42.965],[-79.762,42.27],[-81.624,41.569],[-82.347,41.436],[-83.463,41.694],[-83.12,42.08]]]}},{"type":"Feature","properties":{"scalerank":0,"featurecla":"Lake","name":"Lake Superior","name_alt":"Great Lakes","admin":"admin-0","min_zoom":1,"min_label":3,"name_abb":"L. Superior","label":"Lake Superior","wikidataid":"Q1066","name_ar":"Ø¨Ø­ÙŠØ±Ø© Ø³ÙˆØ¨ÙŠØ±ÙŠÙˆØ±","name_bn":"à¦¸à§à¦ªà¦¿à¦°à¦¿à¦¯à¦¼à¦° à¦¹à§à¦°à¦¦","name_de":"Oberer See","name_en":"Lake Superior","name_es":"Lago Superior","name_fr":"lac SupÃ©rieur","name_el":"Î»Î¯Î¼Î½Î· Î£Î¿Ï…Ï€Î¯ÏÎ¹Î¿Ï","name_hi":"à¤¸à¥à¤ªà¥€à¤°à¤¿à¤¯à¤° à¤à¥€à¤²","name_hu":"FelsÅ‘-tÃ³","name_id":"Danau Superior","name_it":"lago Superiore","name_ja":"ã‚¹ãƒšãƒªã‚ªãƒ«æ¹–","name_ko":"ìŠˆí”¼ë¦¬ì–´ í˜¸","name_nl":"Bovenmeer","name_pl":"Jezioro GÃ³rne","name_pt":"Lago Superior","name_ru":"Ð’ÐµÑ€Ñ…Ð½ÐµÐµ","name_sv":"Ã–vre sjÃ¶n","name_tr":"Superior GÃ¶lÃ¼","name_vi":"Há»“ ThÆ°á»£ng","name_zh":"è‹å¿…åˆ©å°”æ¹–","wdid_score":4,"ne_id":1159112991},"geometry":{"type":"Polygon","coordinates":[[[-89.6,48.01],[-88.179,48.937],[-86.56,48.711],[-85.987,48.01],[-84.864,47.86],[-84.815,46.902],[-84.396,46.777],[-84.605,46.44],[-85.12,46.76],[-86.99,46.45],[-88.261,46.959],[-87.94,47.486],[-90.397,46.576],[-91.01,46.92],[-92.012,46.712],[-90.62,47.68],[-89.6,48.01]]]}},{"type":"Feature","properties":{"scalerank":0,"featurecla":"Lake","name":"Lake Victoria","name_alt":null,"admin":"admin-0","min_zoom":1,"min_label":3,"name_abb":"L. Victoria","label":"Lake Victoria","wikidataid":"Q5505","name_ar":"Ø¨Ø­ÙŠØ±Ø© ÙÙŠÙƒØªÙˆØ±ÙŠØ§","name_bn":"à¦­à¦¿à¦•à§à¦Ÿà§‹à¦°à¦¿à¦¯à¦¼à¦¾ à¦¹à§à¦°à¦¦","name_de":"Victoriasee","name_en":"Lake Victoria","name_es":"Victoria","name_fr":"lac Victoria","name_el":"Î’Î¹ÎºÏ„ÏŒÏÎ¹Î±","name_hi":"à¤µà¤¿à¤•à¥à¤Ÿà¥‹à¤°à¤¿à¤¯à¤¾ à¤à¥€à¤²","name_hu":"ViktÃ³ria-tÃ³","name_id":"Danau Victoria","name_it":"lago Vittoria","name_ja":"ãƒ´ã‚£ã‚¯ãƒˆãƒªã‚¢æ¹–","name_ko":"ë¹…í† ë¦¬ì•„ í˜¸","name_nl":"Victoriameer","name_pl":"Jezioro Wiktorii","name_pt":"Lago VitÃ³ria","name_ru":"Ð’Ð¸ÐºÑ‚Ð¾Ñ€Ð¸Ñ","name_sv":"VictoriasjÃ¶n","name_tr":"Victoria GÃ¶lÃ¼","name_vi":"Há»“ Victoria","name_zh":"ç¶­å¤šåˆ©äºžæ¹–","wdid_score":4,"ne_id":1159113191},"geometry":{"type":"Polygon","coordinates":[[[33.85,0.128],[34.136,-0.319],[34.073,-1.06],[33.252,-1.958],[33.647,-2.301],[31.927,-2.715],[31.648,-2.329],[31.815,-0.64],[32.273,-0.056],[33.332,0.325],[33.85,0.128]]]}},{"type":"Feature","properties":{"scalerank":0,"featurecla":"Lake","name":"Lake Ladoga","name_alt":null,"admin":null,"min_zoom":1,"min_label":3,"name_abb":"L. Ladoga","label":"Lake Ladoga","wikidataid":"Q15288","name_ar":"Ø¨Ø­ÙŠØ±Ø© Ù„Ø§Ø¯ÙˆØºØ§","name_bn":null,"name_de":"Ladogasee","name_en":"Lake Ladoga","name_es":"LÃ¡doga","name_fr":"lac Ladoga","name_el":"Î›Î¬Î½Ï„Î¿Î³ÎºÎ±","name_hi":"à¤²à¤¾à¤¦à¥‹à¤—à¤¾ à¤à¥€à¤²","name_hu":"Ladoga-tÃ³","name_id":"Danau Ladoga","name_it":"lago Ladoga","name_ja":"ãƒ©ãƒ‰ã‚¬æ¹–","name_ko":"ë¼ë„ê°€ í˜¸","name_nl":"Ladogameer","name_pl":"Åadoga","name_pt":"Lago Ladoga","name_ru":"Ð›Ð°Ð´Ð¾Ð¶ÑÐºÐ¾Ðµ Ð¾Ð·ÐµÑ€Ð¾","name_sv":"Ladoga","name_tr":"Ladoga GÃ¶lÃ¼","name_vi":"Há»“ Ladoga","name_zh":"æ‹‰å¤šåŠ æ¹–","wdid_score":4,"ne_id":1159113095},"geometry":{"type":"Polygon","coordinates":[[[29.837,61.226],[30.852,61.775],[32.527,61.118],[32.944,60.643],[32.584,60.209],[31.699,60.236],[31.106,59.928],[29.837,61.226]]]}},{"type":"Feature","properties":{"scalerank":0,"featurecla":"Lake","name":"Lake Balkhash","name_alt":"Balqash KÃ¶li","admin":null,"min_zoom":1,"min_label":3,"name_abb":"L. Balkhash","label":"Lake Balkhash","wikidataid":"Q134485","name_ar":"Ø¨Ø­ÙŠØ±Ø© Ø¨Ø§Ù„ÙƒØ§Ø´","name_bn":null,"name_de":"Balchaschsee","name_en":"Lake Balkhash","name_es":"Lago Baljash","name_fr":"lac Balkhach","name_el":"Î›Î¯Î¼Î½Î· ÎœÏ€Î±Î»ÎºÎ¬Ï‚","name_hi":"à¤¬à¤²à¤–à¤¼à¤¶ à¤à¥€à¤²","name_hu":"Balkas-tÃ³","name_id":"Danau Balkhash","name_it":"lago BalqaÅ¡","name_ja":"ãƒãƒ«ãƒã‚·æ¹–","name_ko":"ë°œí•˜ì‹œ í˜¸","name_nl":"Balkasjmeer","name_pl":"BaÅ‚chasz","name_pt":"Lago Balkhash","name_ru":"Ð‘Ð°Ð»Ñ…Ð°Ñˆ","name_sv":"BalchasjsjÃ¶n","name_tr":"BalkaÅŸ GÃ¶lÃ¼","name_vi":"Há»“ Balkhash","name_zh":"å·´å°”å–€ä»€æ¹–","wdid_score":4,"ne_id":1159113111},"geometry":{"type":"Polygon","coordinates":[[[78.991,46.749],[79.245,46.645],[78.445,46.297],[75.463,46.671],[74.278,46.004],[74.1,44.989],[73.437,45.609],[73.679,46.183],[74.939,46.817],[78.297,46.469],[78.991,46.749]]]}},{"type":"Feature","properties":{"scalerank":0,"featurecla":"Lake","name":"Lake Tanganyika","name_alt":null,"admin":"admin-0","min_zoom":1,"min_label":3,"name_abb":"L. Tanganyika","label":"Lake Tanganyika","wikidataid":"Q5511","name_ar":"Ø¨Ø­ÙŠØ±Ø© ØªÙ†Ø¬Ø§Ù†ÙŠÙ‚Ø§","name_bn":"à¦Ÿà¦¾à¦‚à¦—à¦¾à¦¨à¦¿à¦•à¦¾ à¦¹à§à¦°à¦¦","name_de":"Tanganjikasee","name_en":"Lake Tanganyika","name_es":"lago Tanganica","name_fr":"lac Tanganyika","name_el":"Î¤Î±Î½Î³ÎºÎ±Î½Î¯ÎºÎ±","name_hi":"à¤¤à¤¾à¤‚à¤—à¤¾à¤¨à¥à¤¯à¥€à¤•à¤¾ à¤à¥€à¤²","name_hu":"Tanganyika-tÃ³","name_id":"Danau Tanganyika","name_it":"lago Tanganica","name_ja":"ã‚¿ãƒ³ã‚¬ãƒ‹ãƒ¼ã‚«æ¹–","name_ko":"íƒ•ê°€ë‹ˆì¹´ í˜¸","name_nl":"Tanganyikameer","name_pl":"Tanganika","name_pt":"Lago Tanganica","name_ru":"Ð¢Ð°Ð½Ð³Ð°Ð½ÑŒÐ¸ÐºÐ°","name_sv":"TanganyikasjÃ¶n","name_tr":"Tanganika GÃ¶lÃ¼","name_vi":"Há»“ Tanganyika","name_zh":"å¦å¹²ä¾å–€æ¹–","wdid_score":4,"ne_id":1159113185},"geometry":{"type":"Polygon","coordinates":[[[30.806,-8.578],[30.464,-8.498],[30.567,-8.115],[30.147,-7.299],[29.537,-6.754],[29.193,-6.038],[29.372,-5.616],[29.102,-5.054],[29.281,-3.455],[29.951,-5.861],[29.722,-6.244],[30.528,-6.923],[31.189,-8.73],[30.806,-8.578]]]}},{"type":"Feature","properties":{"scalerank":0,"featurecla":"Lake","name":"Lake Malawi","name_alt":"Lake Nyasa","admin":"admin-0","min_zoom":1,"min_label":3,"name_abb":"L. Malawi","label":"Lake Malawi","wikidataid":"Q5532","name_ar":"Ø¨Ø­ÙŠØ±Ø© Ù…Ø§Ù„Ø§ÙˆÙŠ","name_bn":"à¦®à¦¾à¦²à¦¾à¦‰à¦‡ à¦¹à§à¦°à¦¦","name_de":"Malawisee","name_en":"Lake Malawi","name_es":"Lago Malaui","name_fr":"lac Malawi","name_el":"Î›Î¯Î¼Î½Î· ÎÎ¹Î¬ÏƒÎ±","name_hi":"à¤®à¤²à¤¾à¤µà¥€ à¤à¥€à¤²","name_hu":"Nyasza-tÃ³","name_id":"Danau Malawi","name_it":"lago Malawi","name_ja":"ãƒžãƒ©ã‚¦ã‚¤æ¹–","name_ko":"ë§ë¼ìœ„ í˜¸","name_nl":"Malawimeer","name_pl":"Niasa","name_pt":"Lago Niassa","name_ru":"ÐœÐ°Ð»Ð°Ð²Ð¸","name_sv":"MalawisjÃ¶n","name_tr":"Malavi GÃ¶lÃ¼","name_vi":"Há»“ Malawi","name_zh":"é©¬æ‹‰ç»´æ¹–","wdid_score":4,"ne_id":1159113163},"geometry":{"type":"Polygon","coordinates":[[[35.26,-14.277],[34.881,-14.012],[34.707,-14.262],[34.321,-13.379],[34.033,-12.209],[34.323,-11.653],[33.996,-9.495],[34.524,-10.03],[34.608,-11.081],[34.937,-11.463],[34.694,-12.422],[34.868,-13.701],[35.26,-14.277]]]}},{"type":"Feature","properties":{"scalerank":0,"featurecla":"Alkaline Lake","name":"Aral Sea","name_alt":null,"admin":null,"min_zoom":1,"min_label":3,"name_abb":"Aral Sea","label":"Aral Sea","wikidataid":"Q35883","name_ar":"Ø¨Ø­Ø± Ø¢Ø±Ø§Ù„","name_bn":null,"name_de":"Aralsee","name_en":"Aral Sea","name_es":"Mar de Aral","name_fr":"Mer d'Aral","name_el":"Î›Î¯Î¼Î½Î· Î‘ÏÎ¬Î»Î·","name_hi":"à¤…à¤°à¤² à¤¸à¤¾à¤—à¤°","name_hu":"Aral-tÃ³","name_id":"Laut Aral","name_it":"lago d'Aral","name_ja":"ã‚¢ãƒ©ãƒ«æµ·","name_ko":"ì•„ëž„ í•´","name_nl":"Aralmeer","name_pl":"Jezioro Aralskie","name_pt":"Mar de Aral","name_ru":"ÐÑ€Ð°Ð»ÑŒÑÐºÐ¾Ðµ Ð¼Ð¾Ñ€Ðµ","name_sv":"AralsjÃ¶n","name_tr":"Aral GÃ¶lÃ¼","name_vi":"Biá»ƒn Aral","name_zh":"é¹¹æµ·","wdid_score":4,"ne_id":1159126555},"geometry":{"type":"Polygon","coordinates":[[[60.053,44.265],[59.063,44.369],[59.359,45.19],[58.961,45.375],[58.497,44.212],[58.285,44.474],[58.78,45.887],[59.535,45.705],[59.558,46.305],[60.124,46.096],[59.841,45.52],[60.124,45.573],[60.053,44.265]]]}},{"type":"Feature","properties":{"scalerank":1,"featurecla":"Lake","name":"VÃ¤nern","name_alt":null,"admin":null,"min_zoom":1.7,"min_label":3.6,"name_abb":"VÃ¤nern","label":"VÃ¤nern","wikidataid":"Q173596","name_ar":"Ø¨Ø­ÙŠØ±Ø© ÙØ§Ù†ÙŠØ±Ù†","name_bn":null,"name_de":"VÃ¤nern","name_en":"VÃ¤nern","name_es":"Lago VÃ¤nern","name_fr":"VÃ¤nern","name_el":"Î’Î­Î½ÎµÏÎ½","name_hi":null,"name_hu":"VÃ¤nern-tÃ³","name_id":"VÃ¤nern","name_it":"VÃ¤nern","name_ja":"ãƒ´ã‚§ãƒ¼ãƒãƒ«ãƒ³æ¹–","name_ko":"ë² ë„¤ë¥¸ í˜¸","name_nl":"VÃ¤nermeer","name_pl":"Wener","name_pt":"Lago VÃ¤nern","name_ru":"Ð’ÐµÐ½ÐµÑ€Ð½","name_sv":"VÃ¤nern","name_tr":"VÃ¤nern GÃ¶lÃ¼","name_vi":"Há»“ VÃ¤nern","name_zh":"ç»´çº³æ©æ¹–","wdid_score":4,"ne_id":1159113235},"geometry":{"type":"Polygon","coordinates":[[[13.979,59.205],[13.283,58.609],[12.46,58.506],[12.522,58.88],[13.591,59.336],[13.979,59.205]]]}},{"type":"Feature","properties":{"scalerank":1,"featurecla":"Lake","name":"Lake Okeechobee","name_alt":null,"admin":null,"min_zoom":1.7,"min_label":3.6,"name_abb":"L. Okeechobee","label":"Lake Okeechobee","wikidataid":"Q202905","name_ar":"Ø¨Ø­ÙŠØ±Ø© Ø£ÙˆÙƒÙŠ ØªØ´ÙˆØ¨ÙŠ","name_bn":null,"name_de":"Okeechobeesee","name_en":"Lake Okeechobee","name_es":"Lago Okeechobee","name_fr":"lac Okeechobee","name_el":null,"name_hi":null,"name_hu":null,"name_id":null,"name_it":"lago Okeechobee","name_ja":"ã‚ªã‚­ãƒ¼ãƒãƒ§ãƒ“ãƒ¼æ¹–","name_ko":null,"name_nl":"Okeechobeemeer","name_pl":"Okeechobee","name_pt":"Lago Okeechobee","name_ru":"ÐžÐºÐ¸Ñ‡Ð¾Ð±Ð¸","name_sv":"Lake Okeechobee","name_tr":"Okeechobee GÃ¶lÃ¼","name_vi":null,"name_zh":"å¥§åŸºå–¬æ¯”æ¹–","wdid_score":4,"ne_id":1159106781},"geometry":null},{"type":"Feature","properties":{"scalerank":1,"featurecla":"Lake","name":"Lago de Nicaragua","name_alt":null,"admin":null,"min_zoom":1.7,"min_label":3.6,"name_abb":"L. de Nicaragua","label":"Lago de Nicaragua","wikidataid":"Q173862","name_ar":"Ø¨Ø­ÙŠØ±Ø© Ù†ÙŠÙƒØ§Ø±Ø§ØºÙˆØ§","name_bn":"à¦²à§‡à¦• à¦¨à¦¿à¦•à¦¾à¦°à¦¾à¦—à§à¦¯à¦¼à¦¾","name_de":"Nicaraguasee","name_en":"Lake Nicaragua","name_es":"Lago Cocibolca","name_fr":"lac Nicaragua","name_el":"Î›Î¯Î¼Î½Î· ÎÎ¹ÎºÎ±ÏÎ¬Î³Î¿Ï…Î±","name_hi":null,"name_hu":"Nicaragua-tÃ³","name_id":"Danau Nikaragua","name_it":"lago Nicaragua","name_ja":"ãƒ‹ã‚«ãƒ©ã‚°ã‚¢æ¹–","name_ko":"ë‹ˆì¹´ë¼ê³¼ í˜¸","name_nl":"Meer van Nicaragua","name_pl":"Nikaragua","name_pt":"Lago NicarÃ¡gua","name_ru":"ÐÐ¸ÐºÐ°Ñ€Ð°Ð³ÑƒÐ°","name_sv":"NicaraguasjÃ¶n","name_tr":"Nikaragua GÃ¶lÃ¼","name_vi":"Há»“ Nicaragua","name_zh":"å°¼åŠ æ‹‰ç“œæ¹–","wdid_score":5,"ne_id":1159106791},"geometry":{"type":"Polygon","coordinates":[[[-84.855,11.148],[-85.791,11.51],[-85.885,11.9],[-85.565,11.94],[-84.855,11.148]]]}},{"type":"Feature","properties":{"scalerank":1,"featurecla":"Lake","name":"Lake Tana","name_alt":null,"admin":null,"min_zoom":1.7,"min_label":3.6,"name_abb":"L. Tana","label":"Lake Tana","wikidataid":"Q116685","name_ar":"Ø¨Ø­ÙŠØ±Ø© ØªØ§Ù†Ø§","name_bn":null,"name_de":"Tanasee","name_en":"Lake Tana","name_es":"Lago Tana","name_fr":"lac Tana","name_el":"Î¤Î¬Î½Î±","name_hi":"à¤¤à¤¾à¤¨à¤¾ à¤à¥€à¤²","name_hu":"Tana-tÃ³","name_id":null,"name_it":"lago Tana","name_ja":"ã‚¿ãƒŠæ¹–","name_ko":"íƒ€ë‚˜ í˜¸","name_nl":"Tanameer","name_pl":"Jezioro Tana","name_pt":"Lago Tana","name_ru":"Ð¢Ð°Ð½Ð°","name_sv":"TanasjÃ¶n","name_tr":null,"name_vi":"Há»“ Tana","name_zh":"å¡”ç´æ¹–","wdid_score":4,"ne_id":1159113265},"geometry":{"type":"Polygon","coordinates":[[[37.144,11.851],[37.015,12.036],[37.244,12.234],[37.518,12.161],[37.482,11.825],[37.144,11.851]]]}},{"type":"Feature","properties":{"scalerank":1,"featurecla":"Lake","name":"Lago Titicaca","name_alt":null,"admin":null,"min_zoom":1.7,"min_label":3.6,"name_abb":"L. Titicaca","label":"Lago Titicaca","wikidataid":"Q35342","name_ar":"Ø¨Ø­ÙŠØ±Ø© ØªÙŠØªÙŠÙƒØ§ÙƒØ§","name_bn":"à¦¤à¦¿à¦¤à¦¿à¦•à¦¾à¦•à¦¾ à¦¹à§à¦°à¦¦","name_de":"Titicacasee","name_en":"Titicaca","name_es":"Titicaca","name_fr":"lac Titicaca","name_el":"Î¤Î¹Ï„Î¹ÎºÎ¬ÎºÎ±","name_hi":"à¤Ÿà¥€à¤Ÿà¥€à¤•à¤¾à¤•à¤¾ à¤à¥€à¤²","name_hu":"Titicaca-tÃ³","name_id":"Danau Titicaca","name_it":"Titicaca","name_ja":"ãƒãƒã‚«ã‚«æ¹–","name_ko":"í‹°í‹°ì¹´ì¹´ í˜¸","name_nl":"Titicacameer","name_pl":"Titicaca","name_pt":"Lago Titicaca","name_ru":"Ð¢Ð¸Ñ‚Ð¸ÐºÐ°ÐºÐ°","name_sv":"TiticacasjÃ¶n","name_tr":"Titikaka GÃ¶lÃ¼","name_vi":"Há»“ Titicaca","name_zh":"çš„çš„å–€å–€æ¹–","wdid_score":5,"ne_id":1159113279},"geometry":{"type":"Polygon","coordinates":[[[-69.407,-16.126],[-69.984,-15.737],[-69.886,-15.354],[-68.987,-15.886],[-68.746,-16.356],[-69.001,-16.536],[-69.407,-16.126]]]}},{"type":"Feature","properties":{"scalerank":1,"featurecla":"Lake","name":"Cedar Lake","name_alt":null,"admin":null,"min_zoom":1.7,"min_label":5,"name_abb":"Cedar L.","label":"Cedar Lake","wikidataid":"Q1052532","name_ar":null,"name_bn":null,"name_de":"Cedar Lake","name_en":"Cedar Lake","name_es":"Lago Cedar","name_fr":"lac des CÃ¨dres","name_el":null,"name_hi":null,"name_hu":null,"name_id":null,"name_it":"Cedar Lake","name_ja":"ã‚·ãƒ¼ãƒ€ãƒ¼æ¹–","name_ko":null,"name_nl":"Cedar Lake","name_pl":"Cedar","name_pt":"Lago Cedar","name_ru":"Ð¡Ð¸Ð´Ð°Ñ€","name_sv":"Cedar Lake","name_tr":null,"name_vi":null,"name_zh":"éŒ«é”æ¹–","wdid_score":4,"ne_id":1159123681},"geometry":{"type":"Polygon","coordinates":[[[-99.404,53.126],[-100.431,53.284],[-100.236,54.23],[-99.871,53.928],[-100.056,53.443],[-99.404,53.126]]]}},{"type":"Feature","properties":{"scalerank":1,"featurecla":"Lake","name":"Lake Onega","name_alt":null,"admin":null,"min_zoom":1.7,"min_label":3.6,"name_abb":"L. Onega","label":"Lake Onega","wikidataid":"Q166162","name_ar":"Ø¨Ø­ÙŠØ±Ø© Ø£ÙˆÙ†ÙŠØºØ§","name_bn":null,"name_de":"Onegasee","name_en":"Lake Onega","name_es":"Onega","name_fr":"lac Onega","name_el":"Î›Î¯Î¼Î½Î· ÎŸÎ½Î­Î³ÎºÎ±","name_hi":"à¤“à¤¨à¥‡à¤—à¤¾ à¤à¥€à¤²","name_hu":"Onyega-tÃ³","name_id":"Danau Onega","name_it":"lago Onega","name_ja":"ã‚ªãƒã‚¬æ¹–","name_ko":"ì˜¤ë„¤ê°€ í˜¸","name_nl":"Onegameer","name_pl":"Onega","name_pt":"Lago Onega","name_ru":"ÐžÐ½ÐµÐ¶ÑÐºÐ¾Ðµ Ð¾Ð·ÐµÑ€Ð¾","name_sv":"Onega","name_tr":"Onega GÃ¶lÃ¼","name_vi":"Há»“ Onega","name_zh":"å¥¥æ¶…åŠ æ¹–","wdid_score":4,"ne_id":1159113251},"geometry":{"type":"Polygon","coordinates":[[[35.715,62.28],[36.391,61.276],[35.351,60.949],[34.867,61.116],[35.578,61.086],[34.265,62.219],[34.626,62.452],[35.08,62.141],[35.464,62.256],[34.614,62.762],[35.715,62.28]]]}},{"type":"Feature","properties":{"scalerank":1,"featurecla":"Lake","name":"Lake Onega","name_alt":null,"admin":null,"min_zoom":1.7,"min_label":3.6,"name_abb":"L. Onega","label":"Lake Onega","wikidataid":"Q166162","name_ar":"Ø¨Ø­ÙŠØ±Ø© Ø£ÙˆÙ†ÙŠØºØ§","name_bn":null,"name_de":"Onegasee","name_en":"Lake Onega","name_es":"Onega","name_fr":"lac Onega","name_el":"Î›Î¯Î¼Î½Î· ÎŸÎ½Î­Î³ÎºÎ±","name_hi":"à¤“à¤¨à¥‡à¤—à¤¾ à¤à¥€à¤²","name_hu":"Onyega-tÃ³","name_id":"Danau Onega","name_it":"lago Onega","name_ja":"ã‚ªãƒã‚¬æ¹–","name_ko":"ì˜¤ë„¤ê°€ í˜¸","name_nl":"Onegameer","name_pl":"Onega","name_pt":"Lago Onega","name_ru":"ÐžÐ½ÐµÐ¶ÑÐºÐ¾Ðµ Ð¾Ð·ÐµÑ€Ð¾","name_sv":"Onega","name_tr":"Onega GÃ¶lÃ¼","name_vi":"Há»“ Onega","name_zh":"å¥¥æ¶…åŠ æ¹–","wdid_score":4,"ne_id":1159113251},"geometry":{"type":"Polygon","coordinates":[[[-112.184,41.341],[-112.172,40.851],[-112.679,41.13],[-112.878,41.628],[-112.184,41.341]]]}},{"type":"Feature","properties":{"scalerank":1,"featurecla":"Lake","name":"Great Bear Lake","name_alt":null,"admin":null,"min_zoom":1.7,"min_label":3.6,"name_abb":"Great Bear L.","label":"Great Bear Lake","wikidataid":"Q5525","name_ar":"Ø¨Ø­ÙŠØ±Ø© Ø§Ù„Ø¯Ø¨ Ø§Ù„Ø¹Ø¸ÙŠÙ…","name_bn":null,"name_de":"GroÃŸer BÃ¤rensee","name_en":"Great Bear Lake","name_es":"Gran Lago del Oso","name_fr":"Grand lac de l'Ours","name_el":"ÎœÎµÎ³Î¬Î»Î· Î›Î¯Î¼Î½Î· Ï„Ï‰Î½ Î†ÏÎºÏ„Ï‰Î½","name_hi":null,"name_hu":"Nagy-Medve-tÃ³","name_id":null,"name_it":"Grande Lago degli Orsi","name_ja":"ã‚°ãƒ¬ãƒ¼ãƒˆãƒ™ã‚¢æ¹–","name_ko":"ê·¸ë ˆì´íŠ¸ë² ì–´ í˜¸","name_nl":"Great Bear Lake","name_pl":"Wielkie Jezioro NiedÅºwiedzie","name_pt":"Grande Lago do Urso","name_ru":"Ð‘Ð¾Ð»ÑŒÑˆÐ¾Ðµ ÐœÐµÐ´Ð²ÐµÐ¶ÑŒÐµ Ð¾Ð·ÐµÑ€Ð¾","name_sv":"Stora BjÃ¶rnsjÃ¶n","name_tr":"BÃ¼yÃ¼k AyÄ± GÃ¶lÃ¼","name_vi":"Há»“ Gáº¥u lá»›n","name_zh":"å¤§ç†Šæ¹–","wdid_score":4,"ne_id":1159106721},"geometry":{"type":"Polygon","coordinates":[[[-117.759,66.224],[-118.107,65.767],[-119.72,65.735],[-119.702,65.368],[-121.355,64.88],[-121.057,65.446],[-122.565,65.031],[-123.233,65.18],[-122.356,65.902],[-124.954,66.049],[-119.487,66.969],[-120.177,66.465],[-117.605,66.559],[-117.759,66.224]]]}},{"type":"Feature","properties":{"scalerank":1,"featurecla":"Lake","name":"Lake Athabasca","name_alt":null,"admin":null,"min_zoom":1.7,"min_label":3.7,"name_abb":"L. Athabasca","label":"Lake Athabasca","wikidataid":"Q272463","name_ar":null,"name_bn":null,"name_de":"Athabascasee","name_en":"Lake Athabasca","name_es":"Lago Athabasca","name_fr":"lac Athabasca","name_el":null,"name_hi":null,"name_hu":"Atabaszk-tÃ³","name_id":null,"name_it":"Athabasca","name_ja":"ã‚¢ã‚µãƒã‚¹ã‚«æ¹–","name_ko":null,"name_nl":"Athabascameer","name_pl":"Athabaska","name_pt":"Lago Athabasca","name_ru":"ÐÑ‚Ð°Ð±Ð°ÑÐºÐ°","name_sv":"AthabascasjÃ¶n","name_tr":"Athabasca GÃ¶lÃ¼","name_vi":null,"name_zh":"é˜¿è–©å·´æ–¯å¡æ¹–","wdid_score":4,"ne_id":1159106863},"geometry":{"type":"Polygon","coordinates":[[[-109.653,59.038],[-111.086,58.56],[-111.16,58.76],[-109.097,59.55],[-106.545,59.32],[-109.653,59.038]]]}},{"type":"Feature","properties":{"scalerank":1,"featurecla":"Lake","name":"Reindeer Lake","name_alt":null,"admin":null,"min_zoom":1.7,"min_label":3.7,"name_abb":"Reindeer L.","label":"Reindeer Lake","wikidataid":"Q1134446","name_ar":null,"name_bn":null,"name_de":"Reindeer Lake","name_en":"Reindeer Lake","name_es":"Lago Reindeer","name_fr":"lac Reindeer","name_el":null,"name_hi":null,"name_hu":null,"name_id":null,"name_it":"lago delle Renne","name_ja":null,"name_ko":"ë ˆì¸ë””ì–´ í˜¸","name_nl":"Reindeer Lake","name_pl":"Jezioro Reniferowe","name_pt":"Lago Reindeer","name_ru":"ÐžÐ»ÐµÐ½ÑŒÐµ Ð¾Ð·ÐµÑ€Ð¾","name_sv":"Reindeer Lake","name_tr":null,"name_vi":null,"name_zh":"é¦´é¹¿æ¹–","wdid_score":4,"ne_id":1159106817},"geometry":{"type":"Polygon","coordinates":[[[-101.895,58.014],[-101.544,57.868],[-101.934,57.231],[-103.204,56.345],[-102.577,56.938],[-102.814,57.464],[-101.895,58.014]]]}},{"type":"Feature","properties":{"scalerank":0,"featurecla":"Lake","name":"Lake Huron","name_alt":"Great Lakes","admin":"admin-0","min_zoom":1,"min_label":3,"name_abb":"L. Huron","label":"Lake Huron","wikidataid":"Q1383","name_ar":"Ø¨Ø­ÙŠØ±Ø© Ù‡Ø±ÙˆÙ†","name_bn":null,"name_de":"Huronsee","name_en":"Lake Huron","name_es":"lago HurÃ³n","name_fr":"lac Huron","name_el":"Î›Î¯Î¼Î½Î· Î§Î¹Î¿ÏÏÎ¿Î½","name_hi":"à¤¹à¥à¤¯à¥‚à¤°à¥‰à¤¨ à¤à¥€à¤²","name_hu":"Huron-tÃ³","name_id":"Danau Huron","name_it":"lago Huron","name_ja":"ãƒ’ãƒ¥ãƒ¼ãƒ­ãƒ³æ¹–","name_ko":"íœ´ëŸ° í˜¸","name_nl":"Huronmeer","name_pl":"Huron","name_pt":"Lago Huron","name_ru":"Ð“ÑƒÑ€Ð¾Ð½","name_sv":"HuronsjÃ¶n","name_tr":"Huron GÃ¶lÃ¼","name_vi":"Há»“ Huron","name_zh":"ä¼‘ä¼¦æ¹–","wdid_score":3,"ne_id":1159113021},"geometry":{"type":"Polygon","coordinates":[[[-84.93,45.79],[-84.754,45.924],[-83.839,46.01],[-84.337,46.409],[-84.149,46.556],[-83.953,46.334],[-80.737,45.904],[-79.763,44.825],[-80.085,44.494],[-80.898,44.632],[-81.402,45.25],[-81.276,44.62],[-81.753,44.065],[-81.783,43.311],[-82.43,42.98],[-82.66,43.97],[-83.03,44.07],[-83.849,43.638],[-83.35,44.29],[-83.34,45.2],[-84.93,45.79]]]}},{"type":"Feature","properties":{"scalerank":0,"featurecla":"Lake","name":"Lake Michigan","name_alt":"Great Lakes","admin":"admin-0","min_zoom":1,"min_label":3,"name_abb":"L. Michigan","label":"Lake Michigan","wikidataid":"Q1169","name_ar":"Ø¨Ø­ÙŠØ±Ø© Ù…ÙŠØ´ÙŠØºÙŠÙ†","name_bn":"à¦®à¦¿à¦¶à¦¿à¦—à¦¾à¦¨ à¦¹à§à¦°à¦¦","name_de":"Michigansee","name_en":"Lake Michigan","name_es":"Lago MÃ­chigan","name_fr":"lac Michigan","name_el":"Î›Î¯Î¼Î½Î· ÎœÎ¯ÏƒÎ¹Î³ÎºÎ±Î½","name_hi":"à¤®à¤¿à¤¶à¤¿à¤—à¤¨ à¤à¥€à¤²","name_hu":"Michigan-tÃ³","name_id":"Danau Michigan","name_it":"lago Michigan","name_ja":"ãƒŸã‚·ã‚¬ãƒ³æ¹–","name_ko":"ë¯¸ì‹œê°„ í˜¸","name_nl":"Michiganmeer","name_pl":"Michigan","name_pt":"Lago Michigan","name_ru":"ÐœÐ¸Ñ‡Ð¸Ð³Ð°Ð½","name_sv":"MichigansjÃ¶n","name_tr":"Michigan GÃ¶lÃ¼","name_vi":"Há»“ Michigan","name_zh":"å¯†æ­‡æ ¹æ¹–","wdid_score":4,"ne_id":1159113005},"geometry":{"type":"Polygon","coordinates":[[[-84.754,45.924],[-84.93,45.79],[-85.467,44.815],[-85.56,45.15],[-86.47,44.084],[-86.216,42.382],[-86.824,41.756],[-87.434,41.641],[-87.902,43.231],[-86.967,45.263],[-87.988,44.733],[-87,45.74],[-85.54,46.03],[-84.754,45.924]]]}}]}
